{
  "type": "FeatureCollection",
  "features": [
    {
      "type": "Feature",
      "properties": {
        "norad_id": 35109,
        "name": "FENGYUN 1C DEB",
        "group": "fengyun-1c-debris",
        "lat": -81.36124779027297,
        "lon": 51.99640905937836,
        "alt_km": 928.9600535424734,
        "timestamp": "2025-12-02T06:27:53.300777+00:00",
        "meta_object_name": "FENGYUN 1C DEB",
        "meta_object_id": "1999-025DKM",
        "meta_epoch": "2025-11-29T06:12:55.913472",
        "meta_mean_motion": 14.20844691,
        "meta_eccentricity": 0.01538217,
        "meta_inclination": 98.6145,
        "meta_ra_of_asc_node": 322.8742,
        "meta_arg_of_pericenter": 73.1708,
        "meta_mean_anomaly": 288.6277,
        "meta_ephemeris_type": 0,
        "meta_classification_type": "U",
        "meta_norad_cat_id": 35109,
        "meta_element_set_no": 999,
        "meta_rev_at_epoch": 63968,
        "meta_bstar": 0.0002642587,
        "meta_mean_motion_dot": 6.02e-06,
        "meta_mean_motion_ddot": 0,
        "tle_line1": "1 35109U 99025DKM 25333.25898048  .00000602  00000+0  26426-3 0  9993",
        "tle_line2": "2 35109  98.6145 322.8742 0153821  73.1708 288.6277 14.20844691639688"
      },
      "geometry": {
        "type": "Point",
        "coordinates": [
          51.99640905937836,
          -81.36124779027297
        ]
      }
    },
    {
      "type": "Feature",
      "properties": {
        "norad_id": 35111,
        "name": "FENGYUN 1C DEB",
        "group": "fengyun-1c-debris",
        "lat": 43.201143654312645,
        "lon": -116.62218984402642,
        "alt_km": 858.8058807147463,
        "timestamp": "2025-12-02T06:27:53.300787+00:00",
        "meta_object_name": "FENGYUN 1C DEB",
        "meta_object_id": "1999-025DKP",
        "meta_epoch": "2025-11-29T11:26:42.602208",
        "meta_mean_motion": 14.1093344,
        "meta_eccentricity": 0.00213853,
        "meta_inclination": 99.4668,
        "meta_ra_of_asc_node": 51.4224,
        "meta_arg_of_pericenter": 257.8852,
        "meta_mean_anomaly": 101.9921,
        "meta_ephemeris_type": 0,
        "meta_classification_type": "U",
        "meta_norad_cat_id": 35111,
        "meta_element_set_no": 999,
        "meta_rev_at_epoch": 63957,
        "meta_bstar": 0.00042942154,
        "meta_mean_motion_dot": 7.23e-06,
        "meta_mean_motion_ddot": 0,
        "tle_line1": "1 35111U 99025DKP 25333.47688197  .00000723  00000+0  42942-3 0  9997",
        "tle_line2": "2 35111  99.4668  51.4224 0021385 257.8852 101.9921 14.10933440639571"
      },
      "geometry": {
        "type": "Point",
        "coordinates": [
          -116.62218984402642,
          43.201143654312645
        ]
      }
    },
    {
      "type": "Feature",
      "properties": {
        "norad_id": 35116,
        "name": "FENGYUN 1C DEB",
        "group": "fengyun-1c-debris",
        "lat": -31.427383234337224,
        "lon": -162.9726984912262,
        "alt_km": 843.3650726168826,
        "timestamp": "2025-12-02T06:27:53.300797+00:00",
        "meta_object_name": "FENGYUN 1C DEB",
        "meta_object_id": "1999-025DKU",
        "meta_epoch": "2025-11-29T08:23:15.339840",
        "meta_mean_motion": 14.24983182,
        "meta_eccentricity": 0.00599996,
        "meta_inclination": 98.6639,
        "meta_ra_of_asc_node": 19.4914,
        "meta_arg_of_pericenter": 87.929,
        "meta_mean_anomaly": 272.8759,
        "meta_ephemeris_type": 0,
        "meta_classification_type": "U",
        "meta_norad_cat_id": 35116,
        "meta_element_set_no": 999,
        "meta_rev_at_epoch": 59769,
        "meta_bstar": 0.0010519384,
        "meta_mean_motion_dot": 2.465e-05,
        "meta_mean_motion_ddot": 0,
        "tle_line1": "1 35116U 99025DKU 25333.34948310  .00002465  00000+0  10519-2 0  9993",
        "tle_line2": "2 35116  98.6639  19.4914 0059999  87.9290 272.8759 14.24983182597691"
      },
      "geometry": {
        "type": "Point",
        "coordinates": [
          -162.9726984912262,
          -31.427383234337224
        ]
      }
    },
    {
      "type": "Feature",
      "properties": {
        "norad_id": 35121,
        "name": "FENGYUN 1C DEB",
        "group": "fengyun-1c-debris",
        "lat": 71.98302400638201,
        "lon": 173.7253288511706,
        "alt_km": 799.2347670697818,
        "timestamp": "2025-12-02T06:27:53.300807+00:00",
        "meta_object_name": "FENGYUN 1C DEB",
        "meta_object_id": "1999-025DKZ",
        "meta_epoch": "2025-11-23T20:23:41.984736",
        "meta_mean_motion": 14.04733583,
        "meta_eccentricity": 0.0157971,
        "meta_inclination": 98.3025,
        "meta_ra_of_asc_node": 192.694,
        "meta_arg_of_pericenter": 150.2058,
        "meta_mean_anomaly": 210.8223,
        "meta_ephemeris_type": 0,
        "meta_classification_type": "U",
        "meta_norad_cat_id": 35121,
        "meta_element_set_no": 999,
        "meta_rev_at_epoch": 60826,
        "meta_bstar": 0.00039097454,
        "meta_mean_motion_dot": 6.63e-06,
        "meta_mean_motion_ddot": 0,
        "tle_line1": "1 35121U 99025DKZ 25327.84979149  .00000663  00000+0  39097-3 0  9992",
        "tle_line2": "2 35121  98.3025 192.6940 0157971 150.2058 210.8223 14.04733583608261"
      },
      "geometry": {
        "type": "Point",
        "coordinates": [
          173.7253288511706,
          71.98302400638201
        ]
      }
    },
    {
      "type": "Feature",
      "properties": {
        "norad_id": 35122,
        "name": "FENGYUN 1C DEB",
        "group": "fengyun-1c-debris",
        "lat": 3.5147024396279805,
        "lon": -5.5452322791077675,
        "alt_km": 865.6664817945266,
        "timestamp": "2025-12-02T06:27:53.300817+00:00",
        "meta_object_name": "FENGYUN 1C DEB",
        "meta_object_id": "1999-025DLA",
        "meta_epoch": "2025-12-01T06:40:26.167296",
        "meta_mean_motion": 14.14103936,
        "meta_eccentricity": 0.0024786,
        "meta_inclination": 98.6731,
        "meta_ra_of_asc_node": 354.0299,
        "meta_arg_of_pericenter": 190.136,
        "meta_mean_anomaly": 169.9316,
        "meta_ephemeris_type": 0,
        "meta_classification_type": "U",
        "meta_norad_cat_id": 35122,
        "meta_element_set_no": 999,
        "meta_rev_at_epoch": 63705,
        "meta_bstar": 0.00034418,
        "meta_mean_motion_dot": 6.14e-06,
        "meta_mean_motion_ddot": 0,
        "tle_line1": "1 35122U 99025DLA 25335.27808064  .00000614  00000+0  34418-3 0  9994",
        "tle_line2": "2 35122  98.6731 354.0299 0024786 190.1360 169.9316 14.14103936637056"
      },
      "geometry": {
        "type": "Point",
        "coordinates": [
          -5.5452322791077675,
          3.5147024396279805
        ]
      }
    },
    {
      "type": "Feature",
      "properties": {
        "norad_id": 35123,
        "name": "FENGYUN 1C DEB",
        "group": "fengyun-1c-debris",
        "lat": 40.30547301527672,
        "lon": -13.612730868742604,
        "alt_km": 778.0699019649546,
        "timestamp": "2025-12-02T06:27:53.300827+00:00",
        "meta_object_name": "FENGYUN 1C DEB",
        "meta_object_id": "1999-025DLB",
        "meta_epoch": "2025-11-30T18:24:34.212960",
        "meta_mean_motion": 14.24166953,
        "meta_eccentricity": 0.00496715,
        "meta_inclination": 99.1223,
        "meta_ra_of_asc_node": 156.9956,
        "meta_arg_of_pericenter": 110.2642,
        "meta_mean_anomaly": 250.3885,
        "meta_ephemeris_type": 0,
        "meta_classification_type": "U",
        "meta_norad_cat_id": 35123,
        "meta_element_set_no": 999,
        "meta_rev_at_epoch": 60903,
        "meta_bstar": 0.00056835376,
        "meta_mean_motion_dot": 1.279e-05,
        "meta_mean_motion_ddot": 0,
        "tle_line1": "1 35123U 99025DLB 25334.76706265  .00001279  00000+0  56835-3 0  9993",
        "tle_line2": "2 35123  99.1223 156.9956 0049671 110.2642 250.3885 14.24166953609036"
      },
      "geometry": {
        "type": "Point",
        "coordinates": [
          -13.612730868742604,
          40.30547301527672
        ]
      }
    },
    {
      "type": "Feature",
      "properties": {
        "norad_id": 35125,
        "name": "FENGYUN 1C DEB",
        "group": "fengyun-1c-debris",
        "lat": -66.72573153695525,
        "lon": 148.22008502861337,
        "alt_km": 781.1332722737752,
        "timestamp": "2025-12-02T06:27:53.300837+00:00",
        "meta_object_name": "FENGYUN 1C DEB",
        "meta_object_id": "1999-025DLD",
        "meta_epoch": "2025-11-30T18:06:54.020160",
        "meta_mean_motion": 14.32992983,
        "meta_eccentricity": 0.00524138,
        "meta_inclination": 98.2175,
        "meta_ra_of_asc_node": 346.4138,
        "meta_arg_of_pericenter": 330.9123,
        "meta_mean_anomaly": 28.9145,
        "meta_ephemeris_type": 0,
        "meta_classification_type": "U",
        "meta_norad_cat_id": 35125,
        "meta_element_set_no": 999,
        "meta_rev_at_epoch": 31110,
        "meta_bstar": 0.0013623898,
        "meta_mean_motion_dot": 3.746e-05,
        "meta_mean_motion_ddot": 0,
        "tle_line1": "1 35125U 99025DLD 25334.75479190  .00003746  00000+0  13624-2 0  9997",
        "tle_line2": "2 35125  98.2175 346.4138 0052413 330.9123  28.9145 14.32992983311100"
      },
      "geometry": {
        "type": "Point",
        "coordinates": [
          148.22008502861337,
          -66.72573153695525
        ]
      }
    }
  ]
}